{
"type": "FeatureCollection",
"name": "Shuttle Routes",
"crs": { "type": "name", "properties": { "name": "urn:ogc:def:crs:OGC:1.3:CRS84" } },
"features": [
{ "type": "Feature", "properties": { "full_id": "w19492902", "osm_id": "19492902", "osm_type": "way", "highway": "secondary", "name": "Market Street" }, "geometry": { "type": "LineString", "coordinates": [ [ -85.3075367, 35.0395347 ], [ -85.3075299, 35.0393984 ], [ -85.3075146, 35.0390906 ], [ -85.3074939, 35.0387752 ], [ -85.3074793, 35.0385518 ], [ -85.3074746, 35.03848 ] ] } },
{ "type": "Feature", "properties": { "full_id": "w19492908", "osm_id": "19492908", "osm_type": "way", "highway": "tertiary", "name": "Market Street" }, "geometry": { "type": "LineString", "coordinates": [ [ -85.3090969, 35.0667937 ], [ -85.3090948, 35.0667443 ], [ -85.3090934, 35.0667121 ], [ -85.309081, 35.0664235 ] ] } },
{ "type": "Feature", "properties": { "full_id": "w19493014", "osm_id": "19493014", "osm_type": "way", "highway": "primary", "name": "West Main Street" }, "geometry": { "type": "LineString", "coordinates": [ [ -85.3092593, 35.0368698 ], [ -85.3099838, 35.0371387 ], [ -85.3102566, 35.03724 ] ] } },
{ "type": "Feature", "properties": { "full_id": "w19496827", "osm_id": "19496827", "osm_type": "way", "highway": "residential", "name": "West 10th Street" }, "geometry": { "type": "LineString", "coordinates": [ [ -85.3103572, 35.0448253 ], [ -85.3104929, 35.0448217 ], [ -85.3111886, 35.0448035 ], [ -85.311457, 35.0447965 ], [ -85.311622, 35.0447951 ], [ -85.311751, 35.0448041 ], [ -85.3119715, 35.0448712 ], [ -85.3120575, 35.0449 ] ] } },
{ "type": "Feature", "properties": { "full_id": "w19497031", "osm_id": "19497031", "osm_type": "way", "highway": "residential", "name": "May Street" }, "geometry": { "type": "LineString", "coordinates": [ [ -85.3120945, 35.0660114 ], [ -85.3120915, 35.06605 ], [ -85.3120888, 35.0660785 ], [ -85.3120172, 35.0668314 ], [ -85.312013, 35.0668803 ], [ -85.3120022, 35.0670065 ] ] } },
{ "type": "Feature", "properties": { "full_id": "w19497258", "osm_id": "19497258", "osm_type": "way", "highway": "residential", "name": "West 11th Street" }, "geometry": { "type": "LineString", "coordinates": [ [ -85.309347, 35.0439513 ], [ -85.3094685, 35.0439493 ], [ -85.3095142, 35.0439486 ], [ -85.3096518, 35.0439463 ], [ -85.3101937, 35.0439375 ], [ -85.3102281, 35.0439369 ], [ -85.3103404, 35.0439372 ] ] } },
{ "type": "Feature", "properties": { "full_id": "w19497527", "osm_id": "19497527", "osm_type": "way", "highway": "residential", "name": "Fagan Street" }, "geometry": { "type": "LineString", "coordinates": [ [ -85.29494, 35.0314315 ], [ -85.2954404, 35.0305438 ], [ -85.2955969, 35.0302548 ], [ -85.2957793, 35.0299179 ], [ -85.2959054, 35.0296851 ] ] } },
{ "type": "Feature", "properties": { "full_id": "w19499551", "osm_id": "19499551", "osm_type": "way", "highway": "tertiary", "name": "North Market Street" }, "geometry": { "type": "LineString", "coordinates": [ [ -85.3090969, 35.0667937 ], [ -85.3090914, 35.0668429 ], [ -85.3090547, 35.0672505 ], [ -85.3089633, 35.068238 ], [ -85.308958, 35.068295 ] ] } },
{ "type": "Feature", "properties": { "full_id": "w19500108", "osm_id": "19500108", "osm_type": "way", "highway": "residential", "name": "East 17th Street" }, "geometry": { "type": "LineString", "coordinates": [ [ -85.2972713, 35.0302243 ], [ -85.2971362, 35.0301719 ], [ -85.2966702, 35.0299886 ], [ -85.2959054, 35.0296851 ] ] } },
{ "type": "Feature", "properties": { "full_id": "w19501755", "osm_id": "19501755", "osm_type": "way", "highway": "primary", "name": "Frazier Avenue" }, "geometry": { "type": "LineString", "coordinates": [ [ -85.3081358, 35.0626174 ], [ -85.3078307, 35.0625877 ], [ -85.3077395, 35.0625845 ] ] } },
{ "type": "Feature", "properties": { "full_id": "w19503656", "osm_id": "19503656", "osm_type": "way", "highway": "secondary", "name": "Tennessee Avenue" }, "geometry": { "type": "LineString", "coordinates": [ [ -85.3251461, 35.0145168 ], [ -85.3250717, 35.0144202 ], [ -85.3252113, 35.0141541 ], [ -85.3253663, 35.013877 ], [ -85.3255361, 35.0135734 ], [ -85.3255544, 35.0135407 ], [ -85.3257854, 35.0131277 ], [ -85.3259683, 35.0128007 ], [ -85.3264035, 35.0119725 ], [ -85.3264452, 35.0119232 ] ] } },
{ "type": "Feature", "properties": { "full_id": "w19505891", "osm_id": "19505891", "osm_type": "way", "highway": "primary", "name": "Broad Street" }, "geometry": { "type": "LineString", "coordinates": [ [ -85.3233577, 35.0156829 ], [ -85.3234997, 35.015556 ], [ -85.3237345, 35.0153803 ], [ -85.3237471, 35.0153725 ], [ -85.3243142, 35.0150209 ], [ -85.3243298, 35.0150104 ], [ -85.3244382, 35.0149377 ], [ -85.3245119, 35.0148883 ], [ -85.3246609, 35.0147847 ], [ -85.3247853, 35.0147048 ], [ -85.3250321, 35.0145762 ], [ -85.3251461, 35.0145168 ] ] } },
{ "type": "Feature", "properties": { "full_id": "w19513456", "osm_id": "19513456", "osm_type": "way", "highway": "primary", "name": "East Main Street" }, "geometry": { "type": "LineString", "coordinates": [ [ -85.3073296, 35.0361535 ], [ -85.3072207, 35.0361118 ], [ -85.3069188, 35.035996 ], [ -85.3066222, 35.0358874 ], [ -85.30645, 35.0358162 ], [ -85.3059059, 35.0356076 ] ] } },
{ "type": "Feature", "properties": { "full_id": "w19513794", "osm_id": "19513794", "osm_type": "way", "highway": "residential", "name": "Sawyer Street" }, "geometry": { "type": "LineString", "coordinates": [ [ -85.3077253, 35.0743776 ], [ -85.3077643, 35.0743799 ], [ -85.3083297, 35.0744125 ] ] } },
{ "type": "Feature", "properties": { "full_id": "w45068317", "osm_id": "45068317", "osm_type": "way", "highway": "secondary", "name": "Market Street" }, "geometry": { "type": "LineString", "coordinates": [ [ -85.3085292, 35.0626643 ], [ -85.3085456, 35.0625623 ], [ -85.308698, 35.0616172 ] ] } },
{ "type": "Feature", "properties": { "full_id": "w45271084", "osm_id": "45271084", "osm_type": "way", "highway": "tertiary", "name": "Broad Street" }, "geometry": { "type": "LineString", "coordinates": [ [ -85.310792666985847, 35.054087936423308 ], [ -85.3107816, 35.0535508 ], [ -85.3107794, 35.0534957 ] ] } },
{ "type": "Feature", "properties": { "full_id": "w50264014", "osm_id": "50264014", "osm_type": "way", "highway": "primary", "name": "Cherokee Boulevard" }, "geometry": { "type": "LineString", "coordinates": [ [ -85.3085292, 35.0626643 ], [ -85.3086519, 35.0626994 ], [ -85.3087031, 35.062714 ], [ -85.3089083, 35.0628081 ], [ -85.3090659, 35.0628834 ], [ -85.3091231, 35.0629107 ] ] } },
{ "type": "Feature", "properties": { "full_id": "w50264015", "osm_id": "50264015", "osm_type": "way", "highway": "residential", "name": "West Manning Street" }, "geometry": { "type": "LineString", "coordinates": [ [ -85.3097892, 35.0656664 ], [ -85.3095238, 35.0655738 ], [ -85.3091567, 35.0654456 ], [ -85.309046, 35.065431 ] ] } },
{ "type": "Feature", "properties": { "full_id": "w51065737", "osm_id": "51065737", "osm_type": "way", "highway": "primary", "name": "Broad Street" }, "geometry": { "type": "LineString", "coordinates": [ [ -85.3130638, 35.0342449 ], [ -85.3126152, 35.035073 ] ] } },
{ "type": "Feature", "properties": { "full_id": "w51065765", "osm_id": "51065765", "osm_type": "way", "highway": "secondary", "name": "St Elmo Avenue" }, "geometry": { "type": "LineString", "coordinates": [ [ -85.3293045, 35.0003142 ], [ -85.3293863, 34.9993848 ], [ -85.3294198, 34.9990662 ], [ -85.3294815, 34.9985498 ], [ -85.3295217, 34.9981928 ], [ -85.3295472, 34.9979094 ], [ -85.3295622, 34.9975239 ], [ -85.3295786, 34.9973831 ], [ -85.329616, 34.9970619 ], [ -85.3296641, 34.9966488 ], [ -85.3299834, 34.9958344 ], [ -85.3300834, 34.9955792 ], [ -85.330337, 34.9949562 ], [ -85.3304702, 34.9946289 ], [ -85.3307028, 34.9940554 ], [ -85.3309193, 34.9935217 ], [ -85.3309374, 34.9934751 ], [ -85.330946, 34.9934495 ], [ -85.3309519, 34.9934321 ], [ -85.3309611, 34.9933933 ], [ -85.3309659, 34.9933521 ], [ -85.3309706, 34.9932378 ], [ -85.330974, 34.9929649 ], [ -85.3309783, 34.9927068 ], [ -85.3309826, 34.992452 ], [ -85.331006, 34.9915328 ], [ -85.3310353, 34.9909758 ], [ -85.3310502, 34.9907087 ], [ -85.3310752, 34.990258 ], [ -85.3310949, 34.9897365 ], [ -85.3312263, 34.9884219 ], [ -85.3312512, 34.988318 ] ] } },
{ "type": "Feature", "properties": { "full_id": "w51065771", "osm_id": "51065771", "osm_type": "way", "highway": "secondary", "name": "St Elmo Avenue" }, "geometry": { "type": "LineString", "coordinates": [ [ -85.3280838, 35.0089355 ], [ -85.3281172, 35.0088535 ], [ -85.3281507, 35.0087714 ], [ -85.3282574, 35.0085263 ] ] } },
{ "type": "Feature", "properties": { "full_id": "w51065956", "osm_id": "51065956", "osm_type": "way", "highway": "primary", "name": "Broad Street" }, "geometry": { "type": "LineString", "coordinates": [ [ -85.3099161, 35.0421442 ], [ -85.3098812, 35.0422632 ], [ -85.310092, 35.0426725 ], [ -85.3102301, 35.0429477 ], [ -85.3102466, 35.0430548 ], [ -85.3102604, 35.043429 ], [ -85.3102626, 35.0435451 ], [ -85.3102745, 35.0437211 ], [ -85.3102804, 35.0438638 ], [ -85.3103404, 35.0439372 ] ] } },
{ "type": "Feature", "properties": { "full_id": "w51066113", "osm_id": "51066113", "osm_type": "way", "highway": "primary", "name": "West 4th Street" }, "geometry": { "type": "LineString", "coordinates": [ [ -85.3107403, 35.0523508 ], [ -85.3108643, 35.0523478 ], [ -85.3116885, 35.0523357 ], [ -85.3117934, 35.0523321 ] ] } },
{ "type": "Feature", "properties": { "full_id": "w51066127", "osm_id": "51066127", "osm_type": "way", "highway": "primary", "name": "Broad Street" }, "geometry": { "type": "LineString", "coordinates": [ [ -85.3103824, 35.0451817 ], [ -85.3103899, 35.0454639 ], [ -85.3103946, 35.0456406 ], [ -85.3103944, 35.0457544 ] ] } },
{ "type": "Feature", "properties": { "full_id": "w51067013", "osm_id": "51067013", "osm_type": "way", "highway": "secondary", "name": "Central Avenue" }, "geometry": { "type": "LineString", "coordinates": [ [ -85.2972713, 35.0302243 ], [ -85.2968194, 35.0310535 ], [ -85.296561, 35.031516 ] ] } },
{ "type": "Feature", "properties": { "full_id": "w51067081", "osm_id": "51067081", "osm_type": "way", "highway": "primary", "name": "Broad Street" }, "geometry": { "type": "LineString", "coordinates": [ [ -85.3105381, 35.0457505 ], [ -85.3105255, 35.0456396 ], [ -85.3103824, 35.0451817 ] ] } },
{ "type": "Feature", "properties": { "full_id": "w51067082", "osm_id": "51067082", "osm_type": "way", "highway": "tertiary", "name": "Broad Street" }, "geometry": { "type": "LineString", "coordinates": [ [ -85.3103944, 35.0457544 ], [ -85.3104056, 35.0458718 ], [ -85.3104213, 35.0462297 ], [ -85.3104465, 35.0470294 ], [ -85.3104463, 35.0470772 ] ] } },
{ "type": "Feature", "properties": { "full_id": "w51067095", "osm_id": "51067095", "osm_type": "way", "highway": "secondary", "name": "Market Street" }, "geometry": { "type": "LineString", "coordinates": [ [ -85.309715, 35.0553472 ], [ -85.3097074, 35.0550747 ], [ -85.3097012, 35.0548507 ], [ -85.3096988, 35.0547866 ] ] } },
{ "type": "Feature", "properties": { "full_id": "w110852876", "osm_id": "110852876", "osm_type": "way", "highway": "secondary", "name": "Market Street" }, "geometry": { "type": "LineString", "coordinates": [ [ -85.308698, 35.0616172 ], [ -85.3097329, 35.0561905 ] ] } },
{ "type": "Feature", "properties": { "full_id": "w111563738", "osm_id": "111563738", "osm_type": "way", "highway": "secondary", "name": "Market Street" }, "geometry": { "type": "LineString", "coordinates": [ [ -85.3094139, 35.0457633 ], [ -85.3094113, 35.0456631 ], [ -85.309411, 35.0456531 ], [ -85.3093925, 35.0449167 ], [ -85.3093907, 35.0448465 ] ] } },
{ "type": "Feature", "properties": { "full_id": "w111563746", "osm_id": "111563746", "osm_type": "way", "highway": "primary", "name": "West Martin Luther King Boulevard" }, "geometry": { "type": "LineString", "coordinates": [ [ -85.3094139, 35.0457633 ], [ -85.3095508, 35.0457588 ], [ -85.3103068, 35.0457557 ], [ -85.3103944, 35.0457544 ] ] } },
{ "type": "Feature", "properties": { "full_id": "w111563756", "osm_id": "111563756", "osm_type": "way", "highway": "primary", "name": "West Martin Luther King Boulevard" }, "geometry": { "type": "LineString", "coordinates": [ [ -85.3103944, 35.0457544 ], [ -85.3105381, 35.0457505 ] ] } },
{ "type": "Feature", "properties": { "full_id": "w115807524", "osm_id": "115807524", "osm_type": "way", "highway": "primary", "name": "Broad Street" }, "geometry": { "type": "LineString", "coordinates": [ [ -85.3183401, 35.0247384 ], [ -85.3182922, 35.0248248 ], [ -85.3180286, 35.0253001 ], [ -85.3177643, 35.0257767 ], [ -85.3174332, 35.0263739 ], [ -85.3173171, 35.0265833 ], [ -85.3172006, 35.0267933 ], [ -85.3169417, 35.0272602 ], [ -85.3168316, 35.0274587 ], [ -85.3167737, 35.0275631 ], [ -85.3167385, 35.0276267 ], [ -85.3167005, 35.0276951 ], [ -85.3166991, 35.0276977 ], [ -85.3164334, 35.0281767 ], [ -85.3163238, 35.0283744 ], [ -85.3162957, 35.0284251 ], [ -85.3162537, 35.0285008 ] ] } },
{ "type": "Feature", "properties": { "full_id": "w115807526", "osm_id": "115807526", "osm_type": "way", "highway": "primary", "name": "Broad Street" }, "geometry": { "type": "LineString", "coordinates": [ [ -85.3233577, 35.0156829 ], [ -85.3232892, 35.0157704 ], [ -85.3231754, 35.0159158 ], [ -85.3231511, 35.0159609 ], [ -85.3231188, 35.0160207 ], [ -85.3230248, 35.0161949 ], [ -85.3229489, 35.0163513 ], [ -85.322922, 35.0164104 ], [ -85.322775, 35.0166637 ], [ -85.3227094, 35.0167817 ], [ -85.3225918, 35.016993 ], [ -85.3225254, 35.0171143 ], [ -85.3222428, 35.0176363 ] ] } },
{ "type": "Feature", "properties": { "full_id": "w119784677", "osm_id": "119784677", "osm_type": "way", "highway": "primary", "name": "Broad Street" }, "geometry": { "type": "LineString", "coordinates": [ [ -85.3183401, 35.0247384 ], [ -85.3185315, 35.0245127 ], [ -85.3188915, 35.0238364 ], [ -85.3197849, 35.0221886 ], [ -85.3197685, 35.0220921 ] ] } },
{ "type": "Feature", "properties": { "full_id": "w119994712", "osm_id": "119994712", "osm_type": "way", "highway": "primary", "name": "East Main Street" }, "geometry": { "type": "LineString", "coordinates": [ [ -85.2974164, 35.0323698 ], [ -85.2973322, 35.0323298 ], [ -85.2971694, 35.0322649 ], [ -85.2967965, 35.0321323 ], [ -85.2966664, 35.0320788 ] ] } },
{ "type": "Feature", "properties": { "full_id": "w136738772", "osm_id": "136738772", "osm_type": "way", "highway": "primary", "name": "Broad Street" }, "geometry": { "type": "LineString", "coordinates": [ [ -85.320425, 35.0209496 ], [ -85.3202532, 35.0212463 ], [ -85.3201732, 35.0213854 ], [ -85.3199448, 35.0217824 ], [ -85.3197685, 35.0220921 ] ] } },
{ "type": "Feature", "properties": { "full_id": "w136783459", "osm_id": "136783459", "osm_type": "way", "highway": "residential", "name": "West 11th Street" }, "geometry": { "type": "LineString", "coordinates": [ [ -85.3103404, 35.0439372 ], [ -85.3104561, 35.043932 ], [ -85.3109689, 35.0439111 ], [ -85.3111004, 35.0439081 ], [ -85.3114389, 35.0439004 ], [ -85.311533, 35.0438965 ], [ -85.3120847, 35.0438866 ], [ -85.3122764, 35.0439019 ], [ -85.3124039, 35.0439394 ], [ -85.3124579, 35.043958 ], [ -85.3125574, 35.0439923 ] ] } },
{ "type": "Feature", "properties": { "full_id": "w141264506", "osm_id": "141264506", "osm_type": "way", "highway": "residential", "name": "West 55th Street" }, "geometry": { "type": "LineString", "coordinates": [ [ -85.3312512, 34.988318 ], [ -85.3319658, 34.9883511 ], [ -85.332857, 34.988375 ] ] } },
{ "type": "Feature", "properties": { "full_id": "w143267708", "osm_id": "143267708", "osm_type": "way", "highway": "primary", "name": "Broad Street" }, "geometry": { "type": "LineString", "coordinates": [ [ -85.3162537, 35.0285008 ], [ -85.3162213, 35.0285595 ], [ -85.3155782, 35.0297257 ], [ -85.3153628, 35.0301164 ], [ -85.3152371, 35.0303443 ], [ -85.3151603, 35.0304836 ], [ -85.3146115, 35.0314787 ] ] } },
{ "type": "Feature", "properties": { "full_id": "w196862660", "osm_id": "196862660", "osm_type": "way", "highway": "primary", "name": "East Main Street" }, "geometry": { "type": "LineString", "coordinates": [ [ -85.3053189, 35.035378 ], [ -85.3052213, 35.0353415 ], [ -85.304976, 35.0352499 ], [ -85.304915, 35.0352271 ], [ -85.3044165, 35.0350409 ] ] } },
{ "type": "Feature", "properties": { "full_id": "w196862691", "osm_id": "196862691", "osm_type": "way", "highway": "secondary", "name": "Market Street" }, "geometry": { "type": "LineString", "coordinates": [ [ -85.3094856, 35.0471134 ], [ -85.3094827, 35.0470623 ], [ -85.3094379, 35.0462701 ] ] } },
{ "type": "Feature", "properties": { "full_id": "w215313365", "osm_id": "215313365", "osm_type": "way", "highway": "tertiary", "name": "Chestnut Street" }, "geometry": { "type": "LineString", "coordinates": [ [ -85.311849440364909, 35.054075864464174 ], [ -85.3118479, 35.0540553 ], [ -85.311832, 35.0535363 ], [ -85.3118299, 35.0534699 ] ] } },
{ "type": "Feature", "properties": { "full_id": "w343313808", "osm_id": "343313808", "osm_type": "way", "highway": "primary", "name": "Broad Street" }, "geometry": { "type": "LineString", "coordinates": [ [ -85.3197685, 35.0220921 ], [ -85.3196633, 35.0221617 ], [ -85.3187506, 35.0237966 ], [ -85.3183935, 35.0244782 ], [ -85.3183401, 35.0247384 ] ] } },
{ "type": "Feature", "properties": { "full_id": "w758017387", "osm_id": "758017387", "osm_type": "way", "highway": "secondary", "name": "Tennessee Avenue" }, "geometry": { "type": "LineString", "coordinates": [ [ -85.3276429, 35.0110739 ], [ -85.3277005, 35.0109992 ], [ -85.3277944, 35.0108597 ], [ -85.3279339, 35.0105851 ], [ -85.3279459, 35.0105357 ], [ -85.3279917, 35.010379 ], [ -85.3279955, 35.0103595 ], [ -85.3279897, 35.0101631 ], [ -85.3279787, 35.0097913 ], [ -85.3279772, 35.0097294 ], [ -85.3279768, 35.009683 ], [ -85.3279745, 35.0096229 ], [ -85.3279714, 35.0094608 ], [ -85.3279691, 35.0093437 ], [ -85.3279706, 35.0092625 ], [ -85.327979, 35.0092016 ], [ -85.3279821, 35.0091788 ], [ -85.3280195, 35.0090682 ], [ -85.3280298, 35.0090378 ], [ -85.3280838, 35.0089355 ] ] } },
{ "type": "Feature", "properties": { "full_id": "w777897727", "osm_id": "777897727", "osm_type": "way", "highway": "secondary", "name": "Cherokee Boulevard" }, "geometry": { "type": "LineString", "coordinates": [ [ -85.3129558, 35.0652671 ], [ -85.312977, 35.065284 ], [ -85.3134446, 35.0656564 ], [ -85.3135201, 35.0657165 ], [ -85.3135693, 35.0657583 ] ] } },
{ "type": "Feature", "properties": { "full_id": "w777897729", "osm_id": "777897729", "osm_type": "way", "highway": "secondary", "name": "Cherokee Boulevard" }, "geometry": { "type": "LineString", "coordinates": [ [ -85.3122836, 35.0647362 ], [ -85.3123222, 35.0647629 ], [ -85.3125653, 35.0649562 ], [ -85.3125854, 35.064972 ], [ -85.3126708, 35.06504 ] ] } },
{ "type": "Feature", "properties": { "full_id": "w777897730", "osm_id": "777897730", "osm_type": "way", "highway": "secondary", "name": "Cherokee Boulevard" }, "geometry": { "type": "LineString", "coordinates": [ [ -85.3119927, 35.0645444 ], [ -85.3122836, 35.0647362 ] ] } },
{ "type": "Feature", "properties": { "full_id": "w782052339", "osm_id": "782052339", "osm_type": "way", "highway": "primary", "name": "East Main Street" }, "geometry": { "type": "LineString", "coordinates": [ [ -85.2966664, 35.0320788 ], [ -85.296471, 35.0320065 ], [ -85.2963386, 35.0319575 ] ] } },
{ "type": "Feature", "properties": { "full_id": "w861011654", "osm_id": "861011654", "osm_type": "way", "highway": "primary", "name": "Broad Street" }, "geometry": { "type": "LineString", "coordinates": [ [ -85.3222428, 35.0176363 ], [ -85.3221834, 35.0177594 ], [ -85.3219687, 35.018136 ], [ -85.3219022, 35.0182572 ], [ -85.321823, 35.0184015 ], [ -85.3217443, 35.018545 ], [ -85.3214843, 35.0190188 ], [ -85.3214184, 35.019139 ], [ -85.3213533, 35.0192576 ], [ -85.3212894, 35.0193741 ], [ -85.3211623, 35.0196058 ], [ -85.3211503, 35.0196276 ], [ -85.3210926, 35.0197328 ], [ -85.3210557, 35.0198001 ], [ -85.3210212, 35.019863 ], [ -85.3209378, 35.020015 ], [ -85.3208307, 35.0202101 ], [ -85.3207601, 35.0203388 ], [ -85.3206836, 35.0204766 ], [ -85.3206609, 35.0205197 ], [ -85.320613, 35.020607 ], [ -85.3205928, 35.0206437 ], [ -85.3205238, 35.0207695 ], [ -85.320425, 35.0209496 ] ] } },
{ "type": "Feature", "properties": { "full_id": "w861011657", "osm_id": "861011657", "osm_type": "way", "highway": "secondary", "name": "Market Street" }, "geometry": { "type": "LineString", "coordinates": [ [ -85.3096397, 35.053005 ], [ -85.3096215, 35.0524539 ], [ -85.309619, 35.0523781 ] ] } },
{ "type": "Feature", "properties": { "full_id": "w861011659", "osm_id": "861011659", "osm_type": "way", "highway": "secondary", "name": "Market Street" }, "geometry": { "type": "LineString", "coordinates": [ [ -85.3096573, 35.0535269 ], [ -85.3096554, 35.0534795 ] ] } },
{ "type": "Feature", "properties": { "full_id": "w861020835", "osm_id": "861020835", "osm_type": "way", "highway": "secondary", "name": "Market Street" }, "geometry": { "type": "LineString", "coordinates": [ [ -85.3088003, 35.0419278 ], [ -85.3087453, 35.0418228 ], [ -85.3085907, 35.041528 ], [ -85.3085628, 35.0414747 ], [ -85.3084411, 35.0412429 ], [ -85.3082248, 35.0408305 ], [ -85.30817, 35.0407259 ] ] } },
{ "type": "Feature", "properties": { "full_id": "w861020836", "osm_id": "861020836", "osm_type": "way", "highway": "secondary", "name": "Market Street" }, "geometry": { "type": "LineString", "coordinates": [ [ -85.309619, 35.0523781 ], [ -85.3096149, 35.0522543 ] ] } },
{ "type": "Feature", "properties": { "full_id": "w861020840", "osm_id": "861020840", "osm_type": "way", "highway": "secondary", "name": "Cherokee Boulevard" }, "geometry": { "type": "LineString", "coordinates": [ [ -85.3108119, 35.0638555 ], [ -85.3108706, 35.0638891 ], [ -85.3110416, 35.063987 ], [ -85.3114892, 35.064243 ], [ -85.3116605, 35.064341 ] ] } },
{ "type": "Feature", "properties": { "full_id": "w861020841", "osm_id": "861020841", "osm_type": "way", "highway": "primary", "name": "Frazier Avenue" }, "geometry": { "type": "LineString", "coordinates": [ [ -85.3077395, 35.0625845 ], [ -85.3076616, 35.0625749 ], [ -85.3073484, 35.0625331 ], [ -85.3070534, 35.0624908 ], [ -85.3067068, 35.0624285 ], [ -85.3066326, 35.062414 ] ] } },
{ "type": "Feature", "properties": { "full_id": "w861020843", "osm_id": "861020843", "osm_type": "way", "highway": "residential", "name": "May Street" }, "geometry": { "type": "LineString", "coordinates": [ [ -85.3120022, 35.0670065 ], [ -85.3119588, 35.0674144 ], [ -85.3119173, 35.0677873 ], [ -85.3119123, 35.0678331 ] ] } },
{ "type": "Feature", "properties": { "full_id": "w861020844", "osm_id": "861020844", "osm_type": "way", "highway": "residential", "name": "West Bell Avenue" }, "geometry": { "type": "LineString", "coordinates": [ [ -85.3130151, 35.0685315 ], [ -85.314206, 35.0686116 ], [ -85.3146063, 35.0686386 ], [ -85.3151211, 35.0686732 ] ] } },
{ "type": "Feature", "properties": { "full_id": "w861020846", "osm_id": "861020846", "osm_type": "way", "highway": "residential", "name": "North Market Street" }, "geometry": { "type": "LineString", "coordinates": [ [ -85.3086074, 35.0719242 ], [ -85.3086022, 35.0719668 ], [ -85.3085539, 35.0723649 ], [ -85.3085257, 35.0725977 ], [ -85.3084211, 35.0734609 ], [ -85.3084146, 35.0735144 ] ] } },
{ "type": "Feature", "properties": { "full_id": "w861029876", "osm_id": "861029876", "osm_type": "way", "highway": "tertiary", "name": "Broad Street" }, "geometry": { "type": "LineString", "coordinates": [ [ -85.3106059, 35.0523541 ], [ -85.3106083, 35.0524367 ], [ -85.310622, 35.0529053 ], [ -85.3106378, 35.0534431 ], [ -85.3106393, 35.0534998 ] ] } },
{ "type": "Feature", "properties": { "full_id": "w861029877", "osm_id": "861029877", "osm_type": "way", "highway": "primary", "name": "West 4th Street" }, "geometry": { "type": "LineString", "coordinates": [ [ -85.3106026, 35.0522347 ], [ -85.3104999, 35.052235 ], [ -85.3100297, 35.0522453 ] ] } },
{ "type": "Feature", "properties": { "full_id": "w861104713", "osm_id": "861104713", "osm_type": "way", "highway": "tertiary", "name": "West 3rd Street" }, "geometry": { "type": "LineString", "coordinates": [ [ -85.3106393, 35.0534998 ], [ -85.3107794, 35.0534957 ] ] } },
{ "type": "Feature", "properties": { "full_id": "w862070076", "osm_id": "862070076", "osm_type": "way", "highway": "secondary", "name": "Market Street" }, "geometry": { "type": "LineString", "coordinates": [ [ -85.3095554, 35.0496838 ], [ -85.3095525, 35.0496304 ], [ -85.3095279, 35.0491656 ], [ -85.3094891, 35.0484305 ], [ -85.3094865, 35.0483811 ] ] } },
{ "type": "Feature", "properties": { "full_id": "w862070077", "osm_id": "862070077", "osm_type": "way", "highway": "secondary", "name": "Market Street" }, "geometry": { "type": "LineString", "coordinates": [ [ -85.309347, 35.0439513 ], [ -85.3093446, 35.0438015 ], [ -85.3093429, 35.0436939 ], [ -85.309339, 35.0434422 ], [ -85.309342, 35.0432239 ], [ -85.3093119, 35.0430404 ], [ -85.3092532, 35.0428631 ], [ -85.3091778, 35.042691 ], [ -85.3091675, 35.0426674 ], [ -85.3091482, 35.0426284 ], [ -85.3088552, 35.0420383 ], [ -85.3088003, 35.0419278 ] ] } },
{ "type": "Feature", "properties": { "full_id": "w862077246", "osm_id": "862077246", "osm_type": "way", "highway": "tertiary", "name": "Broad Street" }, "geometry": { "type": "LineString", "coordinates": [ [ -85.3104864, 35.0483598 ], [ -85.3104921, 35.0484247 ], [ -85.3105158, 35.049156 ], [ -85.31053, 35.0495937 ], [ -85.3105293, 35.0496484 ] ] } },
{ "type": "Feature", "properties": { "full_id": "w862110250", "osm_id": "862110250", "osm_type": "way", "highway": "secondary", "name": "Market Street" }, "geometry": { "type": "LineString", "coordinates": [ [ -85.3096803, 35.0542291 ], [ -85.3096751, 35.0540719 ], [ -85.3096589, 35.053576 ], [ -85.3096573, 35.0535269 ] ] } },
{ "type": "Feature", "properties": { "full_id": "w862116439", "osm_id": "862116439", "osm_type": "way", "highway": "secondary", "name": "Market Street" }, "geometry": { "type": "LineString", "coordinates": [ [ -85.3095666, 35.0504529 ], [ -85.3095661, 35.0504177 ], [ -85.3095562, 35.0497391 ], [ -85.3095554, 35.0496838 ] ] } },
{ "type": "Feature", "properties": { "full_id": "w862116440", "osm_id": "862116440", "osm_type": "way", "highway": "tertiary", "name": "Broad Street" }, "geometry": { "type": "LineString", "coordinates": [ [ -85.3105662, 35.050914 ], [ -85.3105683, 35.0509915 ], [ -85.3105771, 35.0513111 ], [ -85.3105853, 35.0516054 ], [ -85.3106006, 35.0521648 ], [ -85.3106026, 35.0522347 ] ] } },
{ "type": "Feature", "properties": { "full_id": "w862116442", "osm_id": "862116442", "osm_type": "way", "highway": "tertiary", "name": "Broad Street" }, "geometry": { "type": "LineString", "coordinates": [ [ -85.3105293, 35.0496484 ], [ -85.3105298, 35.0497173 ], [ -85.310564, 35.0508775 ], [ -85.3105662, 35.050914 ] ] } },
{ "type": "Feature", "properties": { "full_id": "w862116444", "osm_id": "862116444", "osm_type": "way", "highway": "tertiary", "name": "Broad Street" }, "geometry": { "type": "LineString", "coordinates": [ [ -85.3106593, 35.0496475 ], [ -85.3106564, 35.0495915 ], [ -85.3106441, 35.04908 ], [ -85.3106436, 35.0489955 ], [ -85.3106215, 35.0484194 ], [ -85.3106194, 35.0483525 ] ] } },
{ "type": "Feature", "properties": { "full_id": "w862116446", "osm_id": "862116446", "osm_type": "way", "highway": "secondary", "name": "St Elmo Avenue" }, "geometry": { "type": "LineString", "coordinates": [ [ -85.3312512, 34.988318 ], [ -85.3312813, 34.9882521 ], [ -85.331957, 34.986775 ] ] } },
{ "type": "Feature", "properties": { "full_id": "w862116449", "osm_id": "862116449", "osm_type": "way", "highway": "residential", "name": "West 56th Street" }, "geometry": { "type": "LineString", "coordinates": [ [ -85.3332462, 34.9868678 ], [ -85.3326046, 34.9868243 ], [ -85.331957, 34.986775 ] ] } },
{ "type": "Feature", "properties": { "full_id": "w862116451", "osm_id": "862116451", "osm_type": "way", "highway": "residential", "name": "Alabama Avenue" }, "geometry": { "type": "LineString", "coordinates": [ [ -85.332857, 34.988375 ], [ -85.3332462, 34.9868678 ] ] } },
{ "type": "Feature", "properties": { "full_id": "w862426387", "osm_id": "862426387", "osm_type": "way", "highway": "tertiary", "name": "Chestnut Street" }, "geometry": { "type": "LineString", "coordinates": [ [ -85.3118299, 35.0534699 ], [ -85.3118276, 35.0534237 ], [ -85.3118042, 35.052896 ], [ -85.3117977, 35.0525218 ], [ -85.3117957, 35.0524084 ], [ -85.3117934, 35.0523321 ] ] } },
{ "type": "Feature", "properties": { "full_id": "w862426389", "osm_id": "862426389", "osm_type": "way", "highway": "primary", "name": "Broad Street" }, "geometry": { "type": "LineString", "coordinates": [ [ -85.3103404, 35.0439372 ], [ -85.310342, 35.0440075 ], [ -85.3103558, 35.0447516 ], [ -85.3103572, 35.0448253 ] ] } },
{ "type": "Feature", "properties": { "full_id": "w862426390", "osm_id": "862426390", "osm_type": "way", "highway": "secondary", "name": "Carter Street" }, "geometry": { "type": "LineString", "coordinates": [ [ -85.3120575, 35.0449 ], [ -85.3120839, 35.0448521 ], [ -85.3121154, 35.0447998 ] ] } },
{ "type": "Feature", "properties": { "full_id": "w862426392", "osm_id": "862426392", "osm_type": "way", "highway": "secondary", "name": "Market Street" }, "geometry": { "type": "LineString", "coordinates": [ [ -85.3093907, 35.0448465 ], [ -85.3093872, 35.0447813 ], [ -85.3093517, 35.0441207 ] ] } },
{ "type": "Feature", "properties": { "full_id": "w862426393", "osm_id": "862426393", "osm_type": "way", "highway": "secondary", "name": "Market Street" }, "geometry": { "type": "LineString", "coordinates": [ [ -85.3074182, 35.0377167 ], [ -85.3073951, 35.0373087 ], [ -85.3073834, 35.037103 ], [ -85.3073612, 35.0367107 ], [ -85.3073589, 35.0366712 ] ] } },
{ "type": "Feature", "properties": { "full_id": "w862430707", "osm_id": "862430707", "osm_type": "way", "highway": "tertiary", "name": "Broad Street" }, "geometry": { "type": "LineString", "coordinates": [ [ -85.3107794, 35.0534957 ], [ -85.3107778, 35.0534395 ], [ -85.310767, 35.0531273 ], [ -85.3107432, 35.0524345 ], [ -85.3107403, 35.0523508 ] ] } },
{ "type": "Feature", "properties": { "full_id": "w862430708", "osm_id": "862430708", "osm_type": "way", "highway": "tertiary", "name": "West 3rd Street" }, "geometry": { "type": "LineString", "coordinates": [ [ -85.3107794, 35.0534957 ], [ -85.3108834, 35.0534919 ], [ -85.3117347, 35.0534714 ], [ -85.3118299, 35.0534699 ] ] } },
{ "type": "Feature", "properties": { "full_id": "w862430709", "osm_id": "862430709", "osm_type": "way", "highway": "primary", "name": "Frazier Avenue" }, "geometry": null },
{ "type": "Feature", "properties": { "full_id": "w862527355", "osm_id": "862527355", "osm_type": "way", "highway": "secondary", "name": "Market Street" }, "geometry": { "type": "LineString", "coordinates": [ [ -85.309603, 35.0518964 ], [ -85.309594, 35.0516253 ], [ -85.3095906, 35.051523 ], [ -85.3095865, 35.0513991 ] ] } },
{ "type": "Feature", "properties": { "full_id": "w862527356", "osm_id": "862527356", "osm_type": "way", "highway": "primary", "name": "West 4th Street" }, "geometry": { "type": "LineString", "coordinates": [ [ -85.3107364, 35.0522302 ], [ -85.3106026, 35.0522347 ] ] } },
{ "type": "Feature", "properties": { "full_id": "w862527357", "osm_id": "862527357", "osm_type": "way", "highway": "tertiary", "name": "Broad Street" }, "geometry": { "type": "LineString", "coordinates": [ [ -85.3107364, 35.0522302 ], [ -85.3107341, 35.0521613 ], [ -85.310696, 35.0509881 ], [ -85.3106935, 35.0509124 ] ] } },
{ "type": "Feature", "properties": { "full_id": "w862527361", "osm_id": "862527361", "osm_type": "way", "highway": "secondary", "name": "Cherokee Boulevard" }, "geometry": { "type": "LineString", "coordinates": [ [ -85.3142164, 35.0662991 ], [ -85.3143731, 35.0664303 ], [ -85.3144082, 35.0664597 ], [ -85.3146983, 35.0667026 ], [ -85.3147219, 35.0667223 ], [ -85.314977, 35.0669555 ], [ -85.3150651, 35.0670361 ] ] } },
{ "type": "Feature", "properties": { "full_id": "w874527016", "osm_id": "874527016", "osm_type": "way", "highway": "residential", "name": "Hamilton Avenue" }, "geometry": { "type": "LineString", "coordinates": [ [ -85.307925, 35.0718737 ], [ -85.3079133, 35.0720026 ], [ -85.3079114, 35.0720236 ], [ -85.3077803, 35.0734743 ] ] } },
{ "type": "Feature", "properties": { "full_id": "w998959427", "osm_id": "998959427", "osm_type": "way", "highway": "primary", "name": "Broad Street" }, "geometry": { "type": "LineString", "coordinates": [ [ -85.3112361, 35.0376036 ], [ -85.3111998, 35.0376777 ], [ -85.3110524, 35.0379793 ], [ -85.310957, 35.038174 ], [ -85.3107849, 35.0384865 ], [ -85.3107777, 35.0384995 ], [ -85.310774, 35.0385062 ], [ -85.3105494, 35.038909 ] ] } },
{ "type": "Feature", "properties": { "full_id": "w1044300149", "osm_id": "1044300149", "osm_type": "way", "highway": "tertiary", "name": "Dallas Road" }, "geometry": { "type": "LineString", "coordinates": [ [ -85.3086353, 35.0712036 ], [ -85.3086096, 35.0712464 ], [ -85.3085361, 35.0713891 ], [ -85.3084458, 35.0715237 ], [ -85.3083329, 35.0716174 ], [ -85.3082007, 35.0717071 ], [ -85.3081245, 35.0717532 ], [ -85.307925, 35.0718737 ] ] } },
{ "type": "Feature", "properties": { "full_id": "w1044300150", "osm_id": "1044300150", "osm_type": "way", "highway": "tertiary", "name": "North Market Street" }, "geometry": { "type": "LineString", "coordinates": [ [ -85.308958, 35.068295 ], [ -85.3089539, 35.0683424 ], [ -85.3088606, 35.0693478 ] ] } },
{ "type": "Feature", "properties": { "full_id": "w1044300151", "osm_id": "1044300151", "osm_type": "way", "highway": "primary", "name": "Frazier Avenue" }, "geometry": { "type": "LineString", "coordinates": [ [ -85.3061824, 35.0623213 ], [ -85.306108, 35.0623009 ], [ -85.3059083, 35.0622352 ], [ -85.3055483, 35.062092 ], [ -85.3053715, 35.0620194 ] ] } },
{ "type": "Feature", "properties": { "full_id": "w1044300153", "osm_id": "1044300153", "osm_type": "way", "highway": "secondary", "name": "St Elmo Avenue" }, "geometry": { "type": "LineString", "coordinates": [ [ -85.3284576, 35.0080815 ], [ -85.3285144, 35.0079446 ], [ -85.3285278, 35.0079093 ], [ -85.3285643, 35.0077612 ], [ -85.3286742, 35.0065845 ], [ -85.3287198, 35.0060836 ], [ -85.3287734, 35.0055926 ], [ -85.3288364, 35.0049148 ], [ -85.3288539, 35.0047764 ], [ -85.3289075, 35.004232 ], [ -85.3289317, 35.0039855 ], [ -85.328996, 35.003333 ], [ -85.3291395, 35.0018313 ], [ -85.329169, 35.0015742 ], [ -85.3291851, 35.0013776 ], [ -85.3291999, 35.0012589 ], [ -85.3292589, 35.0006664 ], [ -85.3293045, 35.0003142 ] ] } },
{ "type": "Feature", "properties": { "full_id": "w1052887735", "osm_id": "1052887735", "osm_type": "way", "highway": "primary", "name": "Broad Street" }, "geometry": { "type": "LineString", "coordinates": [ [ -85.3146115, 35.0314787 ], [ -85.3145705, 35.0315529 ], [ -85.3140292, 35.0325319 ], [ -85.3139967, 35.0325906 ], [ -85.3139628, 35.0326518 ], [ -85.3138229, 35.0329074 ], [ -85.3138035, 35.03294 ], [ -85.3137074, 35.0331138 ], [ -85.3136531, 35.0332121 ], [ -85.3136007, 35.0333068 ] ] } },
{ "type": "Feature", "properties": { "full_id": "w1094664806", "osm_id": "1094664806", "osm_type": "way", "highway": "secondary", "name": "Tennessee Avenue" }, "geometry": { "type": "LineString", "coordinates": [ [ -85.3264452, 35.0119232 ], [ -85.3265928, 35.0117483 ], [ -85.3267833, 35.0115804 ], [ -85.3268374, 35.0115472 ], [ -85.3269086, 35.0115034 ], [ -85.3269981, 35.0114506 ], [ -85.3270457, 35.0114288 ], [ -85.3272361, 35.0113418 ], [ -85.327321, 35.0113013 ], [ -85.3274739, 35.0112068 ], [ -85.3276429, 35.0110739 ] ] } },
{ "type": "Feature", "properties": { "full_id": "w1122137824", "osm_id": "1122137824", "osm_type": "way", "highway": "secondary", "name": "St. Elmo Avenue" }, "geometry": { "type": "LineString", "coordinates": [ [ -85.3282574, 35.0085263 ], [ -85.3282925, 35.0084469 ], [ -85.3284059, 35.0081905 ] ] } },
{ "type": "Feature", "properties": { "full_id": "w1122144692", "osm_id": "1122144692", "osm_type": "way", "highway": "tertiary", "name": "Market Street" }, "geometry": { "type": "LineString", "coordinates": [ [ -85.3086755, 35.0635637 ], [ -85.3086578, 35.0634969 ], [ -85.3085682, 35.0631323 ], [ -85.308543, 35.0629444 ], [ -85.3085258, 35.0628106 ], [ -85.3085292, 35.0626643 ] ] } },
{ "type": "Feature", "properties": { "full_id": "w1155817260", "osm_id": "1155817260", "osm_type": "way", "highway": "residential", "name": "West Bell Avenue" }, "geometry": { "type": "LineString", "coordinates": [ [ -85.3118462, 35.0684571 ], [ -85.3119009, 35.0684613 ], [ -85.3130151, 35.0685315 ] ] } },
{ "type": "Feature", "properties": { "full_id": "w1155817261", "osm_id": "1155817261", "osm_type": "way", "highway": "residential", "name": "West Bell Avenue" }, "geometry": { "type": "LineString", "coordinates": [ [ -85.3159369, 35.0687241 ], [ -85.3167088, 35.0687938 ], [ -85.3168052, 35.0688025 ] ] } },
{ "type": "Feature", "properties": { "full_id": "w1155817262", "osm_id": "1155817262", "osm_type": "way", "highway": "residential", "name": "West Bell Avenue" }, "geometry": { "type": "LineString", "coordinates": [ [ -85.3151211, 35.0686732 ], [ -85.3153048, 35.068683 ] ] } },
{ "type": "Feature", "properties": { "full_id": "w1155817263", "osm_id": "1155817263", "osm_type": "way", "highway": "residential", "name": "West Bell Avenue" }, "geometry": { "type": "LineString", "coordinates": [ [ -85.3153048, 35.068683 ], [ -85.3155867, 35.0687013 ], [ -85.3159369, 35.0687241 ] ] } },
{ "type": "Feature", "properties": { "full_id": "w1155817264", "osm_id": "1155817264", "osm_type": "way", "highway": "secondary", "name": "Cherokee Boulevard" }, "geometry": { "type": "LineString", "coordinates": [ [ -85.3156707, 35.0675322 ], [ -85.3160884, 35.0679051 ], [ -85.3161367, 35.0679482 ], [ -85.3161978, 35.0680027 ], [ -85.3170451, 35.0687577 ] ] } },
{ "type": "Feature", "properties": { "full_id": "w1155817284", "osm_id": "1155817284", "osm_type": "way", "highway": "secondary", "name": "Cherokee Boulevard" }, "geometry": { "type": "LineString", "coordinates": [ [ -85.3150651, 35.0670361 ], [ -85.3152745, 35.0672076 ], [ -85.3156707, 35.0675322 ] ] } },
{ "type": "Feature", "properties": { "full_id": "w1155817285", "osm_id": "1155817285", "osm_type": "way", "highway": "secondary", "name": "Cherokee Boulevard" }, "geometry": { "type": "LineString", "coordinates": [ [ -85.3116605, 35.064341 ], [ -85.3118136, 35.0644347 ], [ -85.3118435, 35.064453 ], [ -85.3119927, 35.0645444 ] ] } },
{ "type": "Feature", "properties": { "full_id": "w1155817287", "osm_id": "1155817287", "osm_type": "way", "highway": "residential", "name": "West Manning Street" }, "geometry": { "type": "LineString", "coordinates": [ [ -85.3120945, 35.0660114 ], [ -85.3115244, 35.0659668 ] ] } },
{ "type": "Feature", "properties": { "full_id": "w1155817289", "osm_id": "1155817289", "osm_type": "way", "highway": "residential", "name": "West Manning Street" }, "geometry": { "type": "LineString", "coordinates": [ [ -85.3115244, 35.0659668 ], [ -85.311011, 35.0659299 ], [ -85.3106994, 35.0659062 ], [ -85.3106202, 35.0659002 ], [ -85.3103581, 35.0658462 ], [ -85.3102965, 35.0658335 ] ] } },
{ "type": "Feature", "properties": { "full_id": "w1155817290", "osm_id": "1155817290", "osm_type": "way", "highway": "tertiary", "name": "Market Street" }, "geometry": { "type": "LineString", "coordinates": [ [ -85.309046, 35.065431 ], [ -85.3090412, 35.0653684 ], [ -85.3090184, 35.0651874 ], [ -85.3089921, 35.0649786 ], [ -85.3089353, 35.0646736 ], [ -85.3089214, 35.064599 ] ] } },
{ "type": "Feature", "properties": { "full_id": "w1155817294", "osm_id": "1155817294", "osm_type": "way", "highway": "residential", "name": "May Street" }, "geometry": { "type": "LineString", "coordinates": [ [ -85.3119123, 35.0678331 ], [ -85.3119079, 35.0678718 ], [ -85.3118616, 35.0683817 ], [ -85.3118602, 35.0684051 ], [ -85.3118462, 35.0684571 ] ] } },
{ "type": "Feature", "properties": { "full_id": "w1155817304", "osm_id": "1155817304", "osm_type": "way", "highway": "residential", "name": "North Market Street" }, "geometry": { "type": "LineString", "coordinates": [ [ -85.3086353, 35.0712036 ], [ -85.3086805, 35.0712609 ], [ -85.3086696, 35.0713604 ], [ -85.3086587, 35.0714598 ], [ -85.3086539, 35.0714951 ], [ -85.3086201, 35.0717931 ] ] } },
{ "type": "Feature", "properties": { "full_id": "w1155817305", "osm_id": "1155817305", "osm_type": "way", "highway": "residential", "name": "North Market Street" }, "geometry": { "type": "LineString", "coordinates": [ [ -85.3086201, 35.0717931 ], [ -85.3086074, 35.0719242 ] ] } },
{ "type": "Feature", "properties": { "full_id": "w1155817308", "osm_id": "1155817308", "osm_type": "way", "highway": "residential", "name": "North Market Street" }, "geometry": { "type": "LineString", "coordinates": [ [ -85.3084146, 35.0735144 ], [ -85.3083297, 35.0744125 ] ] } },
{ "type": "Feature", "properties": { "full_id": "w1155817316", "osm_id": "1155817316", "osm_type": "way", "highway": "residential", "name": "Hamilton Avenue" }, "geometry": { "type": "LineString", "coordinates": [ [ -85.3077803, 35.0734743 ], [ -85.3077253, 35.0743776 ] ] } },
{ "type": "Feature", "properties": { "full_id": "w1155887141", "osm_id": "1155887141", "osm_type": "way", "highway": "residential", "name": "Gurley Street" }, "geometry": { "type": "LineString", "coordinates": [ [ -85.3168052, 35.0688025 ], [ -85.3168883, 35.068798 ], [ -85.3169053, 35.0687936 ], [ -85.3170451, 35.0687577 ] ] } },
{ "type": "Feature", "properties": { "full_id": "w1155889939", "osm_id": "1155889939", "osm_type": "way", "highway": "tertiary", "name": "North Market Street" }, "geometry": { "type": "LineString", "coordinates": [ [ -85.3087836, 35.0701774 ], [ -85.3087449, 35.0705412 ], [ -85.3086915, 35.0710421 ], [ -85.3086353, 35.0712036 ] ] } },
{ "type": "Feature", "properties": { "full_id": "w1155889940", "osm_id": "1155889940", "osm_type": "way", "highway": "tertiary", "name": "North Market Street" }, "geometry": { "type": "LineString", "coordinates": [ [ -85.3088606, 35.0693478 ], [ -85.3087836, 35.0701774 ] ] } },
{ "type": "Feature", "properties": { "full_id": "w1156039641", "osm_id": "1156039641", "osm_type": "way", "highway": "residential", "name": "West Manning Street" }, "geometry": { "type": "LineString", "coordinates": [ [ -85.3102965, 35.0658335 ], [ -85.3102219, 35.0658093 ], [ -85.3100486, 35.0657521 ], [ -85.3097892, 35.0656664 ] ] } },
{ "type": "Feature", "properties": { "full_id": "w1156049992", "osm_id": "1156049992", "osm_type": "way", "highway": "tertiary", "name": "Market Street" }, "geometry": { "type": "LineString", "coordinates": [ [ -85.3089214, 35.064599 ], [ -85.3089095, 35.0645546 ], [ -85.3088906, 35.0644722 ], [ -85.3088496, 35.0643037 ] ] } },
{ "type": "Feature", "properties": { "full_id": "w1156055587", "osm_id": "1156055587", "osm_type": "way", "highway": "primary", "name": "Cherokee Boulevard" }, "geometry": { "type": "LineString", "coordinates": [ [ -85.3095686, 35.0631589 ], [ -85.3098337, 35.0633112 ], [ -85.3101588, 35.0634964 ], [ -85.3102661, 35.0635578 ] ] } },
{ "type": "Feature", "properties": { "full_id": "w1156059511", "osm_id": "1156059511", "osm_type": "way", "highway": "primary", "name": "Frazier Avenue" }, "geometry": { "type": "LineString", "coordinates": [ [ -85.3066326, 35.062414 ], [ -85.3065707, 35.0624014 ], [ -85.3063682, 35.0623637 ], [ -85.306272, 35.0623446 ], [ -85.3061824, 35.0623213 ] ] } },
{ "type": "Feature", "properties": { "full_id": "w1156332800", "osm_id": "1156332800", "osm_type": "way", "highway": "tertiary", "name": "Market Street" }, "geometry": { "type": "LineString", "coordinates": [ [ -85.3088496, 35.0643037 ], [ -85.3087792, 35.0640143 ], [ -85.3087407, 35.0638447 ], [ -85.3086906, 35.0636245 ], [ -85.3086842, 35.0635989 ], [ -85.3086755, 35.0635637 ] ] } },
{ "type": "Feature", "properties": { "full_id": "w1156343708", "osm_id": "1156343708", "osm_type": "way", "highway": "tertiary", "name": "Broad Street" }, "geometry": { "type": "LineString", "coordinates": [ [ -85.3106026, 35.0522347 ], [ -85.3106059, 35.0523541 ] ] } },
{ "type": "Feature", "properties": { "full_id": "w1156343709", "osm_id": "1156343709", "osm_type": "way", "highway": "primary", "name": "West 4th Street" }, "geometry": { "type": "LineString", "coordinates": [ [ -85.309619, 35.0523781 ], [ -85.3097605, 35.0523747 ], [ -85.3105007, 35.0523566 ], [ -85.3106059, 35.0523541 ] ] } },
{ "type": "Feature", "properties": { "full_id": "w1156343710", "osm_id": "1156343710", "osm_type": "way", "highway": "tertiary", "name": "Broad Street" }, "geometry": { "type": "LineString", "coordinates": [ [ -85.3107403, 35.0523508 ], [ -85.3107364, 35.0522302 ] ] } },
{ "type": "Feature", "properties": { "full_id": "w1156343711", "osm_id": "1156343711", "osm_type": "way", "highway": "primary", "name": "West 4th Street" }, "geometry": { "type": "LineString", "coordinates": [ [ -85.3106059, 35.0523541 ], [ -85.3107403, 35.0523508 ] ] } },
{ "type": "Feature", "properties": { "full_id": "w1156343756", "osm_id": "1156343756", "osm_type": "way", "highway": "primary", "name": "Broad Street" }, "geometry": { "type": "LineString", "coordinates": [ [ -85.3105494, 35.038909 ], [ -85.310457, 35.039074 ], [ -85.3100778, 35.039754 ], [ -85.3100472, 35.0398091 ] ] } },
{ "type": "Feature", "properties": { "full_id": "w1156343761", "osm_id": "1156343761", "osm_type": "way", "highway": "secondary", "name": "Market Street" }, "geometry": { "type": "LineString", "coordinates": [ [ -85.30817, 35.0407259 ], [ -85.3076798, 35.039779 ], [ -85.3076474, 35.0397214 ] ] } },
{ "type": "Feature", "properties": { "full_id": "w1156343762", "osm_id": "1156343762", "osm_type": "way", "highway": "primary", "name": "Broad Street" }, "geometry": { "type": "LineString", "coordinates": [ [ -85.3100472, 35.0398091 ], [ -85.3100132, 35.0398723 ], [ -85.3098336, 35.0402066 ], [ -85.3097057, 35.0404446 ], [ -85.3095679, 35.040723 ], [ -85.3095135, 35.0408932 ], [ -85.3094967, 35.0410603 ], [ -85.3095155, 35.041247 ], [ -85.3095712, 35.0414317 ], [ -85.3096144, 35.0415256 ], [ -85.3096947, 35.0417003 ], [ -85.3097393, 35.0417973 ] ] } },
{ "type": "Feature", "properties": { "full_id": "w1156343770", "osm_id": "1156343770", "osm_type": "way", "highway": "secondary", "name": "Market Street" }, "geometry": { "type": "LineString", "coordinates": [ [ -85.3093517, 35.0441207 ], [ -85.3093493, 35.0440345 ], [ -85.309347, 35.0439513 ] ] } },
{ "type": "Feature", "properties": { "full_id": "w1156343845", "osm_id": "1156343845", "osm_type": "way", "highway": "secondary", "name": "Market Street" }, "geometry": { "type": "LineString", "coordinates": [ [ -85.3094865, 35.0483811 ], [ -85.3094865, 35.0483367 ], [ -85.3094856, 35.0471666 ], [ -85.3094856, 35.0471134 ] ] } },
{ "type": "Feature", "properties": { "full_id": "w1156610942", "osm_id": "1156610942", "osm_type": "way", "highway": "secondary", "name": "Market Street" }, "geometry": { "type": "LineString", "coordinates": [ [ -85.3074746, 35.03848 ], [ -85.3074527, 35.0381832 ], [ -85.3074349, 35.0379419 ] ] } },
{ "type": "Feature", "properties": { "full_id": "w1156610943", "osm_id": "1156610943", "osm_type": "way", "highway": "secondary", "name": "Market Street" }, "geometry": { "type": "LineString", "coordinates": [ [ -85.3073589, 35.0366712 ], [ -85.3073435, 35.0363986 ], [ -85.3073366, 35.0362558 ], [ -85.3073296, 35.0361535 ] ] } },
{ "type": "Feature", "properties": { "full_id": "w1156610944", "osm_id": "1156610944", "osm_type": "way", "highway": "primary", "name": "West Main Street" }, "geometry": { "type": "LineString", "coordinates": [ [ -85.3073296, 35.0361535 ], [ -85.3074625, 35.0361993 ], [ -85.308234, 35.0364888 ], [ -85.3092014, 35.0368483 ], [ -85.3092593, 35.0368698 ] ] } },
{ "type": "Feature", "properties": { "full_id": "w1156610947", "osm_id": "1156610947", "osm_type": "way", "highway": "primary", "name": "West Main Street" }, "geometry": { "type": "LineString", "coordinates": [ [ -85.3102566, 35.03724 ], [ -85.3103152, 35.0372618 ], [ -85.3111448, 35.0375697 ], [ -85.3112361, 35.0376036 ] ] } },
{ "type": "Feature", "properties": { "full_id": "w1156610949", "osm_id": "1156610949", "osm_type": "way", "highway": "primary", "name": "Broad Street" }, "geometry": { "type": "LineString", "coordinates": [ [ -85.3121489, 35.0359262 ], [ -85.3119513, 35.0362774 ], [ -85.3118483, 35.0364604 ], [ -85.3116927, 35.0367369 ], [ -85.3115121, 35.0370797 ], [ -85.3112788, 35.0375225 ], [ -85.3112361, 35.0376036 ] ] } },
{ "type": "Feature", "properties": { "full_id": "w1156610955", "osm_id": "1156610955", "osm_type": "way", "highway": "primary", "name": "Broad Street" }, "geometry": { "type": "LineString", "coordinates": [ [ -85.3126152, 35.035073 ], [ -85.3124215, 35.0354275 ], [ -85.3121489, 35.0359262 ] ] } },
{ "type": "Feature", "properties": { "full_id": "w1156610973", "osm_id": "1156610973", "osm_type": "way", "highway": "primary", "name": "Broad Street" }, "geometry": { "type": "LineString", "coordinates": [ [ -85.313600742165178, 35.033310670283477 ], [ -85.3134967, 35.0334944 ], [ -85.3130638, 35.0342449 ] ] } },
{ "type": "Feature", "properties": { "full_id": "w1156615603", "osm_id": "1156615603", "osm_type": "way", "highway": "primary", "name": "East Main Street" }, "geometry": { "type": "LineString", "coordinates": [ [ -85.3059059, 35.0356076 ], [ -85.3054129, 35.0354148 ], [ -85.3053189, 35.035378 ] ] } },
{ "type": "Feature", "properties": { "full_id": "w1156615629", "osm_id": "1156615629", "osm_type": "way", "highway": "primary", "name": "East Main Street" }, "geometry": { "type": "LineString", "coordinates": [ [ -85.2989485, 35.032954 ], [ -85.298685, 35.0328583 ] ] } },
{ "type": "Feature", "properties": { "full_id": "w1156615630", "osm_id": "1156615630", "osm_type": "way", "highway": "primary", "name": "East Main Street" }, "geometry": { "type": "LineString", "coordinates": [ [ -85.2996682, 35.0332272 ], [ -85.2989485, 35.032954 ] ] } },
{ "type": "Feature", "properties": { "full_id": "w1156615631", "osm_id": "1156615631", "osm_type": "way", "highway": "primary", "name": "East Main Street" }, "geometry": { "type": "LineString", "coordinates": [ [ -85.300095, 35.0333893 ], [ -85.2996682, 35.0332272 ] ] } },
{ "type": "Feature", "properties": { "full_id": "w1156615632", "osm_id": "1156615632", "osm_type": "way", "highway": "primary", "name": "East Main Street" }, "geometry": { "type": "LineString", "coordinates": [ [ -85.3003921, 35.0335003 ], [ -85.300095, 35.0333893 ] ] } },
{ "type": "Feature", "properties": { "full_id": "w1156615633", "osm_id": "1156615633", "osm_type": "way", "highway": "primary", "name": "East Main Street" }, "geometry": { "type": "LineString", "coordinates": [ [ -85.3010948, 35.0337671 ], [ -85.3003921, 35.0335003 ] ] } },
{ "type": "Feature", "properties": { "full_id": "w1156615634", "osm_id": "1156615634", "osm_type": "way", "highway": "primary", "name": "East Main Street" }, "geometry": { "type": "LineString", "coordinates": [ [ -85.3013444, 35.0338619 ], [ -85.3010948, 35.0337671 ] ] } },
{ "type": "Feature", "properties": { "full_id": "w1156615639", "osm_id": "1156615639", "osm_type": "way", "highway": "primary", "name": "East Main Street" }, "geometry": { "type": "LineString", "coordinates": [ [ -85.3016675, 35.0339834 ], [ -85.3016317, 35.0339701 ], [ -85.3015106, 35.033925 ], [ -85.3014005, 35.0338832 ], [ -85.3013444, 35.0338619 ] ] } },
{ "type": "Feature", "properties": { "full_id": "w1156615641", "osm_id": "1156615641", "osm_type": "way", "highway": "primary", "name": "East Main Street" }, "geometry": { "type": "LineString", "coordinates": [ [ -85.3025676, 35.0343374 ], [ -85.3025141, 35.0343165 ], [ -85.3020162, 35.0341212 ], [ -85.301863, 35.0340611 ], [ -85.3016675, 35.0339834 ] ] } },
{ "type": "Feature", "properties": { "full_id": "w1156615642", "osm_id": "1156615642", "osm_type": "way", "highway": "primary", "name": "East Main Street" }, "geometry": { "type": "LineString", "coordinates": [ [ -85.3038746, 35.0348347 ], [ -85.3037853, 35.0348007 ], [ -85.3033818, 35.0346472 ], [ -85.3032843, 35.0346101 ], [ -85.3026062, 35.0343521 ], [ -85.3025676, 35.0343374 ] ] } },
{ "type": "Feature", "properties": { "full_id": "w1156615643", "osm_id": "1156615643", "osm_type": "way", "highway": "primary", "name": "East Main Street" }, "geometry": { "type": "LineString", "coordinates": [ [ -85.3044165, 35.0350409 ], [ -85.3039567, 35.0348659 ], [ -85.3038746, 35.0348347 ] ] } },
{ "type": "Feature", "properties": { "full_id": "w1156615647", "osm_id": "1156615647", "osm_type": "way", "highway": "secondary", "name": "Market Street" }, "geometry": { "type": "LineString", "coordinates": [ [ -85.3074349, 35.0379419 ], [ -85.3074296, 35.0378695 ], [ -85.3074182, 35.0377167 ] ] } },
{ "type": "Feature", "properties": { "full_id": "w1156995268", "osm_id": "1156995268", "osm_type": "way", "highway": "secondary", "name": "Cherokee Boulevard" }, "geometry": { "type": "LineString", "coordinates": [ [ -85.3126708, 35.06504 ], [ -85.3129095, 35.0652301 ], [ -85.3129558, 35.0652671 ] ] } },
{ "type": "Feature", "properties": { "full_id": "w1156995269", "osm_id": "1156995269", "osm_type": "way", "highway": "secondary", "name": "Cherokee Boulevard" }, "geometry": { "type": "LineString", "coordinates": [ [ -85.3135693, 35.0657583 ], [ -85.3136558, 35.0658299 ], [ -85.313994, 35.066113 ], [ -85.3142164, 35.0662991 ] ] } },
{ "type": "Feature", "properties": { "full_id": "w1156995270", "osm_id": "1156995270", "osm_type": "way", "highway": "secondary", "name": "Cherokee Boulevard" }, "geometry": { "type": "LineString", "coordinates": [ [ -85.3102661, 35.0635578 ], [ -85.3103509, 35.0636041 ], [ -85.3108119, 35.0638555 ] ] } },
{ "type": "Feature", "properties": { "full_id": "w1156995271", "osm_id": "1156995271", "osm_type": "way", "highway": "primary", "name": "Cherokee Boulevard" }, "geometry": { "type": "LineString", "coordinates": [ [ -85.3091231, 35.0629107 ], [ -85.309475, 35.0631051 ], [ -85.3095686, 35.0631589 ] ] } },
{ "type": "Feature", "properties": { "full_id": "w1156995272", "osm_id": "1156995272", "osm_type": "way", "highway": "primary", "name": "Frazier Avenue" }, "geometry": { "type": "LineString", "coordinates": [ [ -85.3085292, 35.0626643 ], [ -85.3083947, 35.0626495 ], [ -85.3081358, 35.0626174 ] ] } },
{ "type": "Feature", "properties": { "full_id": "w1157770307", "osm_id": "1157770307", "osm_type": "way", "highway": "secondary", "name": "Market Street" }, "geometry": { "type": "LineString", "coordinates": [ [ -85.3097329, 35.0561905 ], [ -85.3097425, 35.0561078 ], [ -85.3097402, 35.0560374 ], [ -85.3097313, 35.0557695 ], [ -85.3097291, 35.0557012 ] ] } },
{ "type": "Feature", "properties": { "full_id": "w1157770314", "osm_id": "1157770314", "osm_type": "way", "highway": "residential", "name": "West 8th Street" }, "geometry": null },
{ "type": "Feature", "properties": { "full_id": "w1157770315", "osm_id": "1157770315", "osm_type": "way", "highway": "tertiary", "name": "Broad Street" }, "geometry": { "type": "LineString", "coordinates": [ [ -85.3105753, 35.0470742 ], [ -85.3105733, 35.0470266 ], [ -85.3105561, 35.0463984 ], [ -85.3105378, 35.0458686 ], [ -85.3105381, 35.0457505 ] ] } },
{ "type": "Feature", "properties": { "full_id": "w1157770317", "osm_id": "1157770317", "osm_type": "way", "highway": "tertiary", "name": "Broad Street" }, "geometry": { "type": "LineString", "coordinates": [ [ -85.3104463, 35.0470772 ], [ -85.3104503, 35.0471428 ], [ -85.3104874, 35.0483097 ], [ -85.3104864, 35.0483598 ] ] } },
{ "type": "Feature", "properties": { "full_id": "w1158466952", "osm_id": "1158466952", "osm_type": "way", "highway": "residential", "name": "West 10th Street" }, "geometry": { "type": "LineString", "coordinates": [ [ -85.3093907, 35.0448465 ], [ -85.3095499, 35.0448429 ], [ -85.3102275, 35.0448276 ], [ -85.3102461, 35.0448273 ], [ -85.3103572, 35.0448253 ] ] } },
{ "type": "Feature", "properties": { "full_id": "w1158466953", "osm_id": "1158466953", "osm_type": "way", "highway": "primary", "name": "Broad Street" }, "geometry": { "type": "LineString", "coordinates": [ [ -85.3103572, 35.0448253 ], [ -85.3103617, 35.0448888 ], [ -85.3103824, 35.0451817 ] ] } },
{ "type": "Feature", "properties": { "full_id": "w1162266879", "osm_id": "1162266879", "osm_type": "way", "highway": "secondary", "name": "Market Street" }, "geometry": { "type": "LineString", "coordinates": [ [ -85.3094379, 35.0462701 ], [ -85.3094171, 35.0459031 ], [ -85.3094139, 35.0457633 ] ] } },
{ "type": "Feature", "properties": { "full_id": "w1162292064", "osm_id": "1162292064", "osm_type": "way", "highway": "tertiary", "name": "Broad Street" }, "geometry": { "type": "LineString", "coordinates": [ [ -85.3106194, 35.0483525 ], [ -85.310619, 35.0483015 ], [ -85.3105764, 35.04714 ], [ -85.3105753, 35.0470742 ] ] } },
{ "type": "Feature", "properties": { "full_id": "w1162292066", "osm_id": "1162292066", "osm_type": "way", "highway": "tertiary", "name": "Broad Street" }, "geometry": { "type": "LineString", "coordinates": [ [ -85.3106935, 35.0509124 ], [ -85.3106939, 35.050877 ], [ -85.3106765, 35.0501823 ], [ -85.3106621, 35.049715 ], [ -85.3106593, 35.0496475 ] ] } },
{ "type": "Feature", "properties": { "full_id": "w1163891057", "osm_id": "1163891057", "osm_type": "way", "highway": "secondary", "name": "St. Elmo Avenue" }, "geometry": { "type": "LineString", "coordinates": [ [ -85.3284059, 35.0081905 ], [ -85.3284148, 35.0081717 ], [ -85.3284576, 35.0080815 ] ] } },
{ "type": "Feature", "properties": { "full_id": "w1203884057", "osm_id": "1203884057", "osm_type": "way", "highway": "primary", "name": "Broad Street" }, "geometry": { "type": "LineString", "coordinates": [ [ -85.3098135, 35.0419367 ], [ -85.3099161, 35.0421442 ] ] } },
{ "type": "Feature", "properties": { "full_id": "w1203884058", "osm_id": "1203884058", "osm_type": "way", "highway": "primary", "name": "Broad Street" }, "geometry": { "type": "LineString", "coordinates": [ [ -85.3097393, 35.0417973 ], [ -85.3098074, 35.0419252 ], [ -85.3098135, 35.0419367 ] ] } },
{ "type": "Feature", "properties": { "full_id": "w1282127893", "osm_id": "1282127893", "osm_type": "way", "highway": "primary", "name": "East Main Street" }, "geometry": { "type": "LineString", "coordinates": [ [ -85.2963386, 35.0319575 ], [ -85.2962165, 35.0319116 ], [ -85.2956443, 35.0316964 ], [ -85.2955528, 35.031662 ], [ -85.29494, 35.0314315 ] ] } },
{ "type": "Feature", "properties": { "full_id": "w1282127894", "osm_id": "1282127894", "osm_type": "way", "highway": "secondary", "name": "Central Avenue" }, "geometry": { "type": "LineString", "coordinates": [ [ -85.296561, 35.031516 ], [ -85.296389, 35.0318575 ], [ -85.2963386, 35.0319575 ] ] } },
{ "type": "Feature", "properties": { "full_id": "w1450910724", "osm_id": "1450910724", "osm_type": "way", "highway": "primary", "name": "Broad Street" }, "geometry": { "type": "LineString", "coordinates": [ [ -85.3103404, 35.0439372 ], [ -85.3103882, 35.0438505 ], [ -85.3103836, 35.0435358 ], [ -85.3103788, 35.0434279 ], [ -85.3103738, 35.0433162 ], [ -85.3103652, 35.0430288 ], [ -85.3103647, 35.0429982 ], [ -85.3103628, 35.0429739 ], [ -85.3103163, 35.0427837 ], [ -85.3102947, 35.0427189 ], [ -85.3102719, 35.0426705 ], [ -85.3102463, 35.0426162 ], [ -85.3100456, 35.0422221 ], [ -85.3099161, 35.0421442 ] ] } },
{ "type": "Feature", "properties": { "full_id": "w1486914474", "osm_id": "1486914474", "osm_type": "way", "highway": "primary", "name": "West 4th Street" }, "geometry": { "type": "LineString", "coordinates": [ [ -85.3100297, 35.0522453 ], [ -85.3097575, 35.0522513 ], [ -85.3096149, 35.0522543 ] ] } },
{ "type": "Feature", "properties": { "full_id": "w1507147337", "osm_id": "1507147337", "osm_type": "way", "highway": "secondary", "name": "Market Street" }, "geometry": { "type": "LineString", "coordinates": [ [ -85.3095733, 35.0509433 ], [ -85.309573, 35.0508908 ], [ -85.3095666, 35.0504529 ] ] } },
{ "type": "Feature", "properties": { "full_id": "w1507147338", "osm_id": "1507147338", "osm_type": "way", "highway": "secondary", "name": "Market Street" }, "geometry": { "type": "LineString", "coordinates": [ [ -85.3095865, 35.0513991 ], [ -85.3095759, 35.0510128 ], [ -85.3095733, 35.0509433 ] ] } },
{ "type": "Feature", "properties": { "full_id": "w1507147339", "osm_id": "1507147339", "osm_type": "way", "highway": "secondary", "name": "Market Street" }, "geometry": { "type": "LineString", "coordinates": [ [ -85.3096149, 35.0522543 ], [ -85.3096129, 35.0521939 ], [ -85.309603, 35.0518964 ] ] } },
{ "type": "Feature", "properties": { "full_id": "w1507147340", "osm_id": "1507147340", "osm_type": "way", "highway": "secondary", "name": "Market Street" }, "geometry": { "type": "LineString", "coordinates": [ [ -85.3096554, 35.0534795 ], [ -85.3096397, 35.053005 ] ] } },
{ "type": "Feature", "properties": { "full_id": "w1507147341", "osm_id": "1507147341", "osm_type": "way", "highway": "secondary", "name": "Market Street" }, "geometry": { "type": "LineString", "coordinates": [ [ -85.3096988, 35.0547866 ], [ -85.3097001, 35.0547429 ], [ -85.3096803, 35.0542291 ] ] } },
{ "type": "Feature", "properties": { "full_id": "w1507147342", "osm_id": "1507147342", "osm_type": "way", "highway": "secondary", "name": "Market Street" }, "geometry": { "type": "LineString", "coordinates": [ [ -85.3097291, 35.0557012 ], [ -85.3097268, 35.055632 ], [ -85.309715, 35.0553472 ] ] } },
{ "type": "Feature", "properties": { "full_id": "w1510529085", "osm_id": "1510529085", "osm_type": "way", "highway": "primary", "name": "East Main Street" }, "geometry": { "type": "LineString", "coordinates": [ [ -85.2974164, 35.0323698 ], [ -85.2974871, 35.0324544 ], [ -85.2983499, 35.0327765 ], [ -85.2984709, 35.0327752 ] ] } },
{ "type": "Feature", "properties": { "full_id": "w1510529086", "osm_id": "1510529086", "osm_type": "way", "highway": "primary", "name": "East Main Street" }, "geometry": { "type": "LineString", "coordinates": [ [ -85.2984709, 35.0327752 ], [ -85.2984028, 35.0327055 ], [ -85.2975379, 35.032373 ], [ -85.2974164, 35.0323698 ] ] } },
{ "type": "Feature", "properties": { "full_id": "w1510529087", "osm_id": "1510529087", "osm_type": "way", "highway": "primary", "name": "East Main Street" }, "geometry": { "type": "LineString", "coordinates": [ [ -85.298685, 35.0328583 ], [ -85.2984709, 35.0327752 ] ] } },
{ "type": "Feature", "properties": { "full_id": "w1532199578", "osm_id": "1532199578", "osm_type": "way", "highway": "tertiary", "name": "Market Street" }, "geometry": { "type": "LineString", "coordinates": [ [ -85.3090763, 35.0663139 ], [ -85.3090646, 35.0660414 ], [ -85.309043, 35.065541 ], [ -85.3090427, 35.0655332 ], [ -85.3090419, 35.0655157 ], [ -85.309046, 35.065431 ] ] } },
{ "type": "Feature", "properties": { "full_id": "w1532199579", "osm_id": "1532199579", "osm_type": "way", "highway": "tertiary", "name": "Market Street" }, "geometry": { "type": "LineString", "coordinates": [ [ -85.309081, 35.0664235 ], [ -85.3090763, 35.0663139 ] ] } },
{ "type": "Feature", "properties": { "full_id": "w1537841207", "osm_id": "1537841207", "osm_type": "way", "highway": "secondary", "name": "Carter Street" }, "geometry": { "type": "LineString", "coordinates": [ [ -85.3121154, 35.0447998 ], [ -85.3121633, 35.044708 ], [ -85.3123739, 35.0443256 ], [ -85.3124699, 35.0441511 ], [ -85.3125156, 35.0440682 ], [ -85.3125574, 35.0439923 ] ] } },
{ "type": "Feature", "properties": { "full_id": null, "osm_id": null, "osm_type": null, "highway": null, "name": null }, "geometry": { "type": "LineString", "coordinates": [ [ -85.311849591297261, 35.054075742084592 ], [ -85.310792880253672, 35.05408759176931 ] ] } },
{ "type": "Feature", "properties": { "full_id": null, "osm_id": null, "osm_type": null, "highway": null, "name": null }, "geometry": { "type": "LineString", "coordinates": [ [ -85.3076460975674, 35.039721131459196 ], [ -85.307536365013036, 35.039533601543589 ], [ -85.307536365013036, 35.039533601543589 ] ] } },
{ "type": "Feature", "properties": { "full_id": null, "osm_id": null, "osm_type": null, "highway": null, "name": null }, "geometry": { "type": "LineString", "coordinates": [ [ -85.305371296597059, 35.062019587299467 ], [ -85.305268680270117, 35.062184951110979 ], [ -85.305187915262565, 35.0623162741173 ], [ -85.305040626028671, 35.062249638335366 ], [ -85.305003139022972, 35.062251620072139 ], [ -85.3049000335389, 35.062413863748738 ], [ -85.304907039312482, 35.062438103095758 ], [ -85.305053544737007, 35.062496542810841 ], [ -85.305187282110964, 35.06231652980977 ] ] } },
{ "type": "Feature", "properties": { "full_id": null, "osm_id": null, "osm_type": null, "highway": null, "name": null }, "geometry": { "type": "LineString", "coordinates": [ [ -85.307419490284559, 35.037719264304201 ], [ -85.307070706984376, 35.037748032034095 ], [ -85.307087096455803, 35.03818641138681 ], [ -85.307447178765017, 35.038183769484284 ] ] } }
]
}
